IRIDIUM 7               
1 24793U 97020B   24215.93842799  .00000729  00000+0  24787-3 0  9996
2 24793  86.3980 310.2548 0002455  94.2091 265.9385 14.35321465426234
IRIDIUM 5               
1 24795U 97020D   24215.61202764  .00004860  00000+0  45625-3 0  9999
2 24795  86.3896 229.8685 0119998 196.1154 163.6243 14.88345678437972
IRIDIUM 4               
1 24796U 97020E   24215.77578153  .00000807  00000+0  26985-3 0  9990
2 24796  86.3974 307.4101 0002283  97.6672 262.4784 14.36250002426755
IRIDIUM 914             
1 24836U 97030A   24215.82040869  .00000907  00000+0  28119-3 0  9992
2 24836  86.3965 316.9380 0002665 135.9516 224.1895 14.40122428561293
IRIDIUM 16              
1 24841U 97030F   24215.86470351  .00000909  00000+0  29429-3 0  9992
2 24841  86.4073 339.0135 0003678  62.2886 297.8685 14.38009527421246
IRIDIUM 911             
1 24842U 97030G   24215.85844166  .00001259  00000+0  34264-3 0  9993
2 24842  86.4498 338.1012 0016404  81.0662 279.2397 14.46683913429040
IRIDIUM 17              
1 24870U 97034B   24215.93293157  .00000921  00000+0  30369-3 0  9992
2 24870  86.3979   8.5541 0002016  45.8914 314.2449 14.37098793417862
IRIDIUM 920             
1 24871U 97034C   24215.89054588  .00000919  00000+0  28075-3 0  9999
2 24871  86.4012 348.5504 0013274  58.3788 301.8704 14.40818646420731
